{
  "type": "FeatureCollection",
  "features": [
    {
      "type": "Feature",
      "properties": {
        "norad_id": 37781,
        "name": "HAIYANG-2A",
        "group": "resource",
        "lat": 27.65565966401698,
        "lon": -16.086506444106796,
        "alt_km": 966.0074633442546,
        "timestamp": "2025-12-13T22:39:29.364887+00:00",
        "meta_object_name": "HAIYANG-2A",
        "meta_object_id": "2011-043A",
        "meta_epoch": "2025-12-13T06:50:55.623264",
        "meta_mean_motion": 13.78834391,
        "meta_eccentricity": 0.00016501,
        "meta_inclination": 99.3383,
        "meta_ra_of_asc_node": 348.2114,
        "meta_arg_of_pericenter": 82.4238,
        "meta_mean_anomaly": 277.7101,
        "meta_ephemeris_type": 0,
        "meta_classification_type": "U",
        "meta_norad_cat_id": 37781,
        "meta_element_set_no": 999,
        "meta_rev_at_epoch": 72106,
        "meta_bstar": -0.00015480109,
        "meta_mean_motion_dot": -2.02e-06,
        "meta_mean_motion_ddot": 0,
        "tle_line1": "1 37781U 11043A   25347.28536601 -.00000202  00000+0 -15480-3 0  9993",
        "tle_line2": "2 37781  99.3383 348.2114 0001650  82.4238 277.7101 13.78834391721063"
      },
      "geometry": {
        "type": "Point",
        "coordinates": [
          -16.086506444106796,
          27.65565966401698
        ]
      }
    },
    {
      "type": "Feature",
      "properties": {
        "norad_id": 37791,
        "name": "RASAT",
        "group": "resource",
        "lat": 9.137539334411459,
        "lon": -101.50991962822378,
        "alt_km": 674.5216766189442,
        "timestamp": "2025-12-13T22:39:29.364898+00:00",
        "meta_object_name": "RASAT",
        "meta_object_id": "2011-044D",
        "meta_epoch": "2025-12-13T07:29:13.558272",
        "meta_mean_motion": 14.67912767,
        "meta_eccentricity": 0.00218734,
        "meta_inclination": 98.0645,
        "meta_ra_of_asc_node": 76.5607,
        "meta_arg_of_pericenter": 63.3939,
        "meta_mean_anomaly": 8.5557,
        "meta_ephemeris_type": 0,
        "meta_classification_type": "U",
        "meta_norad_cat_id": 37791,
        "meta_element_set_no": 999,
        "meta_rev_at_epoch": 76591,
        "meta_bstar": 0.00025779547,
        "meta_mean_motion_dot": 1.431e-05,
        "meta_mean_motion_ddot": 0,
        "tle_line1": "1 37791U 11044D   25347.31196248  .00001431  00000+0  25780-3 0  9995",
        "tle_line2": "2 37791  98.0645  76.5607 0021873  63.3939   8.5557 14.67912767765914"
      },
      "geometry": {
        "type": "Point",
        "coordinates": [
          -101.50991962822378,
          9.137539334411459
        ]
      }
    },
    {
      "type": "Feature",
      "properties": {
        "norad_id": 37841,
        "name": "SRMSAT",
        "group": "resource",
        "lat": 19.94181827764647,
        "lon": -171.84031339092854,
        "alt_km": 853.3386769400913,
        "timestamp": "2025-12-13T22:39:29.364908+00:00",
        "meta_object_name": "SRMSAT",
        "meta_object_id": "2011-058D",
        "meta_epoch": "2025-12-13T00:55:22.594944",
        "meta_mean_motion": 14.11511594,
        "meta_eccentricity": 0.00117679,
        "meta_inclination": 19.971,
        "meta_ra_of_asc_node": 106.1426,
        "meta_arg_of_pericenter": 316.7615,
        "meta_mean_anomaly": 198.8861,
        "meta_ephemeris_type": 0,
        "meta_classification_type": "U",
        "meta_norad_cat_id": 37841,
        "meta_element_set_no": 999,
        "meta_rev_at_epoch": 73148,
        "meta_bstar": 0.00013117397,
        "meta_mean_motion_dot": 5.06e-06,
        "meta_mean_motion_ddot": 0,
        "tle_line1": "1 37841U 11058D   25347.03845596  .00000506  00000+0  13117-3 0  9995",
        "tle_line2": "2 37841  19.9710 106.1426 0011767 316.7615 198.8861 14.11511594731489"
      },
      "geometry": {
        "type": "Point",
        "coordinates": [
          -171.84031339092854,
          19.94181827764647
        ]
      }
    },
    {
      "type": "Feature",
      "properties": {
        "norad_id": 38012,
        "name": "PLEIADES 1A",
        "group": "resource",
        "lat": -72.92055021543982,
        "lon": 88.61555954659396,
        "alt_km": 705.8855442575586,
        "timestamp": "2025-12-13T22:39:29.364918+00:00",
        "meta_object_name": "PLEIADES 1A",
        "meta_object_id": "2011-076F",
        "meta_epoch": "2025-12-13T08:31:01.282944",
        "meta_mean_motion": 14.58563252,
        "meta_eccentricity": 0.00012967,
        "meta_inclination": 98.1819,
        "meta_ra_of_asc_node": 60.1135,
        "meta_arg_of_pericenter": 74.3067,
        "meta_mean_anomaly": 358.7484,
        "meta_ephemeris_type": 0,
        "meta_classification_type": "U",
        "meta_norad_cat_id": 38012,
        "meta_element_set_no": 999,
        "meta_rev_at_epoch": 74490,
        "meta_bstar": 0.00019489246,
        "meta_mean_motion_dot": 8.61e-06,
        "meta_mean_motion_ddot": 0,
        "tle_line1": "1 38012U 11076F   25347.35487596  .00000861  00000+0  19489-3 0  9995",
        "tle_line2": "2 38012  98.1819  60.1135 0001296  74.3067 358.7484 14.58563252744907"
      },
      "geometry": {
        "type": "Point",
        "coordinates": [
          88.61555954659396,
          -72.92055021543982
        ]
      }
    },
    {
      "type": "Feature",
      "properties": {
        "norad_id": 38038,
        "name": "ZIYUAN 1-02C (ZY 1-02C)",
        "group": "resource",
        "lat": 73.77281304833981,
        "lon": -95.4198354181989,
        "alt_km": 753.5775514825218,
        "timestamp": "2025-12-13T22:39:29.364929+00:00",
        "meta_object_name": "ZIYUAN 1-02C (ZY 1-02C)",
        "meta_object_id": "2011-079A",
        "meta_epoch": "2025-12-13T07:30:03.259008",
        "meta_mean_motion": 14.38014031,
        "meta_eccentricity": 0.00072061,
        "meta_inclination": 98.4329,
        "meta_ra_of_asc_node": 53.3151,
        "meta_arg_of_pericenter": 136.8031,
        "meta_mean_anomaly": 299.5609,
        "meta_ephemeris_type": 0,
        "meta_classification_type": "U",
        "meta_norad_cat_id": 38038,
        "meta_element_set_no": 999,
        "meta_rev_at_epoch": 73249,
        "meta_bstar": 0.00034544416,
        "meta_mean_motion_dot": 1.002e-05,
        "meta_mean_motion_ddot": 0,
        "tle_line1": "1 38038U 11079A   25347.31253772  .00001002  00000+0  34544-3 0  9996",
        "tle_line2": "2 38038  98.4329  53.3151 0007206 136.8031 299.5609 14.38014031732494"
      },
      "geometry": {
        "type": "Point",
        "coordinates": [
          -95.4198354181989,
          73.77281304833981
        ]
      }
    },
    {
      "type": "Feature",
      "properties": {
        "norad_id": 38046,
        "name": "ZIYUAN 3-1 (ZY 3-1)",
        "group": "resource",
        "lat": 73.39711540074339,
        "lon": -100.61567002470872,
        "alt_km": 355.7869281357871,
        "timestamp": "2025-12-13T22:39:29.364939+00:00",
        "meta_object_name": "ZIYUAN 3-1 (ZY 3-1)",
        "meta_object_id": "2012-001A",
        "meta_epoch": "2025-12-13T06:54:12.337056",
        "meta_mean_motion": 15.68694418,
        "meta_eccentricity": 0.00017246,
        "meta_inclination": 97.1754,
        "meta_ra_of_asc_node": 53.7178,
        "meta_arg_of_pericenter": 350.3429,
        "meta_mean_anomaly": 9.7799,
        "meta_ephemeris_type": 0,
        "meta_classification_type": "U",
        "meta_norad_cat_id": 38046,
        "meta_element_set_no": 999,
        "meta_rev_at_epoch": 77505,
        "meta_bstar": 0.00096345471,
        "meta_mean_motion_dot": 0.0011072,
        "meta_mean_motion_ddot": 0,
        "tle_line1": "1 38046U 12001A   25347.28764279  .00110720  00000+0  96345-3 0  9991",
        "tle_line2": "2 38046  97.1754  53.7178 0001724 350.3429   9.7799 15.68694418775054"
      },
      "geometry": {
        "type": "Point",
        "coordinates": [
          -100.61567002470872,
          73.39711540074339
        ]
      }
    },
    {
      "type": "Feature",
      "properties": {
        "norad_id": 38338,
        "name": "ARIRANG-3 (KOMPSAT-3)",
        "group": "resource",
        "lat": -16.05687456240908,
        "lon": 120.12488017600602,
        "alt_km": 695.2907726764133,
        "timestamp": "2025-12-13T22:39:29.364949+00:00",
        "meta_object_name": "ARIRANG-3 (KOMPSAT-3)",
        "meta_object_id": "2012-025B",
        "meta_epoch": "2025-12-13T06:58:39.047808",
        "meta_mean_motion": 14.61713927,
        "meta_eccentricity": 0.00053235,
        "meta_inclination": 98.3322,
        "meta_ra_of_asc_node": 301.8842,
        "meta_arg_of_pericenter": 337.066,
        "meta_mean_anomaly": 23.0302,
        "meta_ephemeris_type": 0,
        "meta_classification_type": "U",
        "meta_norad_cat_id": 38338,
        "meta_element_set_no": 999,
        "meta_rev_at_epoch": 72418,
        "meta_bstar": 0.00019740491,
        "meta_mean_motion_dot": 9.35e-06,
        "meta_mean_motion_ddot": 0,
        "tle_line1": "1 38338U 12025B   25347.29072972  .00000935  00000+0  19740-3 0  9994",
        "tle_line2": "2 38338  98.3322 301.8842 0005323 337.0660  23.0302 14.61713927724181"
      },
      "geometry": {
        "type": "Point",
        "coordinates": [
          120.12488017600602,
          -16.05687456240908
        ]
      }
    }
  ]
}